CCSDS_OMM_VERS = 2.0
CREATION_DATE  = 
ORIGINATOR     = 

OBJECT_NAME    = UNKNOWN
OBJECT_ID      = 
CENTER_NAME    = EARTH
REF_FRAME      = TEME
TIME_SYSTEM    = UTC
MEAN_ELEMENT_THEORY = SGP/SGP4

EPOCH          = 2025-11-30T11:49:25.706496
MEAN_MOTION    = 14.40233144
ECCENTRICITY   = .0007775
INCLINATION    = 71.0020
RA_OF_ASC_NODE = 54.3273
ARG_OF_PERICENTER = 251.2509
MEAN_ANOMALY   = 108.7783

EPHEMERIS_TYPE = 0
CLASSIFICATION_TYPE = U
NORAD_CAT_ID   = 81745
ELEMENT_SET_NO = 999
REV_AT_EPOCH   = 62798
BSTAR          = .95866E-3
MEAN_MOTION_DOT = .2987E-4
MEAN_MOTION_DDOT = 0

CCSDS_OMM_VERS = 2.0
CREATION_DATE  = 
ORIGINATOR     = 

OBJECT_NAME    = UNKNOWN
OBJECT_ID      = 
CENTER_NAME    = EARTH
REF_FRAME      = TEME
TIME_SYSTEM    = UTC
MEAN_ELEMENT_THEORY = SGP/SGP4

EPOCH          = 2025-11-15T13:47:51.780768
MEAN_MOTION    = 12.77597143
ECCENTRICITY   = .0369757
INCLINATION    = 99.6904
RA_OF_ASC_NODE = 353.3665
ARG_OF_PERICENTER = 269.7481
MEAN_ANOMALY   = 249.3097

EPHEMERIS_TYPE = 0
CLASSIFICATION_TYPE = U
NORAD_CAT_ID   = 81749
ELEMENT_SET_NO = 999
REV_AT_EPOCH   = 55853
BSTAR          = .84989E-3
MEAN_MOTION_DOT = .211E-5
MEAN_MOTION_DDOT = 0

CCSDS_OMM_VERS = 2.0
CREATION_DATE  = 
ORIGINATOR     = 

OBJECT_NAME    = UNKNOWN
OBJECT_ID      = 
CENTER_NAME    = EARTH
REF_FRAME      = TEME
TIME_SYSTEM    = UTC
MEAN_ELEMENT_THEORY = SGP/SGP4

EPOCH          = 2025-11-28T00:13:38.791200
MEAN_MOTION    = 14.40556626
ECCENTRICITY   = .0018042
INCLINATION    = 82.9191
RA_OF_ASC_NODE = 236.4877
ARG_OF_PERICENTER = 305.3206
MEAN_ANOMALY   = 54.6299

EPHEMERIS_TYPE = 0
CLASSIFICATION_TYPE = U
NORAD_CAT_ID   = 81775
ELEMENT_SET_NO = 999
REV_AT_EPOCH   = 62315
BSTAR          = .22323E-2
MEAN_MOTION_DOT = .7141E-4
MEAN_MOTION_DDOT = 0

CCSDS_OMM_VERS = 2.0
CREATION_DATE  = 
ORIGINATOR     = 

OBJECT_NAME    = UNKNOWN
OBJECT_ID      = 
CENTER_NAME    = EARTH
REF_FRAME      = TEME
TIME_SYSTEM    = UTC
MEAN_ELEMENT_THEORY = SGP/SGP4

EPOCH          = 2025-11-27T16:51:22.500000
MEAN_MOTION    = 13.10816805
ECCENTRICITY   = .0896981
INCLINATION    = 65.8243
RA_OF_ASC_NODE = 129.6666
ARG_OF_PERICENTER = 288.9934
MEAN_ANOMALY   = 61.6061

EPHEMERIS_TYPE = 0
CLASSIFICATION_TYPE = U
NORAD_CAT_ID   = 81792
ELEMENT_SET_NO = 999
REV_AT_EPOCH   = 7806
BSTAR          = .51908E-3
MEAN_MOTION_DOT = .1411E-4
MEAN_MOTION_DDOT = 0

CCSDS_OMM_VERS = 2.0
CREATION_DATE  = 
ORIGINATOR     = 

OBJECT_NAME    = UNKNOWN
OBJECT_ID      = 
CENTER_NAME    = EARTH
REF_FRAME      = TEME
TIME_SYSTEM    = UTC
MEAN_ELEMENT_THEORY = SGP/SGP4

EPOCH          = 2025-11-30T05:02:29.148576
MEAN_MOTION    = 12.37691082
ECCENTRICITY   = .0318442
INCLINATION    = 103.8178
RA_OF_ASC_NODE = 244.2568
ARG_OF_PERICENTER = 271.0420
MEAN_ANOMALY   = 85.4171

EPHEMERIS_TYPE = 0
CLASSIFICATION_TYPE = U
NORAD_CAT_ID   = 81812
ELEMENT_SET_NO = 999
REV_AT_EPOCH   = 53901
BSTAR          = -.28396E-2
MEAN_MOTION_DOT = -.495E-5
MEAN_MOTION_DDOT = 0

CCSDS_OMM_VERS = 2.0
CREATION_DATE  = 
ORIGINATOR     = 

OBJECT_NAME    = UNKNOWN
OBJECT_ID      = 
CENTER_NAME    = EARTH
REF_FRAME      = TEME
TIME_SYSTEM    = UTC
MEAN_ELEMENT_THEORY = SGP/SGP4

EPOCH          = 2025-11-30T08:35:58.449696
MEAN_MOTION    = 13.89452409
ECCENTRICITY   = .0183883
INCLINATION    = 66.2383
RA_OF_ASC_NODE = 326.9961
ARG_OF_PERICENTER = 253.2789
MEAN_ANOMALY   = 104.8034

EPHEMERIS_TYPE = 0
CLASSIFICATION_TYPE = U
NORAD_CAT_ID   = 81816
ELEMENT_SET_NO = 999
REV_AT_EPOCH   = 60762
BSTAR          = .14838E-2
MEAN_MOTION_DOT = .1997E-4
MEAN_MOTION_DDOT = 0

CCSDS_OMM_VERS = 2.0
CREATION_DATE  = 
ORIGINATOR     = 

OBJECT_NAME    = UNKNOWN
OBJECT_ID      = 
CENTER_NAME    = EARTH
REF_FRAME      = TEME
TIME_SYSTEM    = UTC
MEAN_ELEMENT_THEORY = SGP/SGP4

EPOCH          = 2025-11-28T05:26:08.416320
MEAN_MOTION    = 12.47614835
ECCENTRICITY   = .0036637
INCLINATION    = 102.1775
RA_OF_ASC_NODE = 69.1905
ARG_OF_PERICENTER = 148.7440
MEAN_ANOMALY   = 211.5815

EPHEMERIS_TYPE = 0
CLASSIFICATION_TYPE = U
NORAD_CAT_ID   = 81819
ELEMENT_SET_NO = 999
REV_AT_EPOCH   = 54620
BSTAR          = .77162E-2
MEAN_MOTION_DOT = .1094E-4
MEAN_MOTION_DDOT = 0

CCSDS_OMM_VERS = 2.0
CREATION_DATE  = 
ORIGINATOR     = 

OBJECT_NAME    = UNKNOWN
OBJECT_ID      = 
CENTER_NAME    = EARTH
REF_FRAME      = TEME
TIME_SYSTEM    = UTC
MEAN_ELEMENT_THEORY = SGP/SGP4

EPOCH          = 2025-11-30T08:40:23.586240
MEAN_MOTION    = 14.35178981
ECCENTRICITY   = .0040929
INCLINATION    = 65.8476
RA_OF_ASC_NODE = 11.0991
ARG_OF_PERICENTER = 331.5965
MEAN_ANOMALY   = 28.2898

EPHEMERIS_TYPE = 0
CLASSIFICATION_TYPE = U
NORAD_CAT_ID   = 81824
ELEMENT_SET_NO = 999
REV_AT_EPOCH   = 62281
BSTAR          = .22169E-2
MEAN_MOTION_DOT = .6321E-4
MEAN_MOTION_DDOT = 0

CCSDS_OMM_VERS = 2.0
CREATION_DATE  = 
ORIGINATOR     = 

OBJECT_NAME    = UNKNOWN
OBJECT_ID      = 
CENTER_NAME    = EARTH
REF_FRAME      = TEME
TIME_SYSTEM    = UTC
MEAN_ELEMENT_THEORY = SGP/SGP4

EPOCH          = 2025-11-30T08:34:22.017792
MEAN_MOTION    = 12.93719461
ECCENTRICITY   = .0027996
INCLINATION    = 90.2420
RA_OF_ASC_NODE = 2.6404
ARG_OF_PERICENTER = 58.7652
MEAN_ANOMALY   = 301.6204

EPHEMERIS_TYPE = 0
CLASSIFICATION_TYPE = U
NORAD_CAT_ID   = 81833
ELEMENT_SET_NO = 999
REV_AT_EPOCH   = 45091
BSTAR          = .53425E-3
MEAN_MOTION_DOT = .155E-5
MEAN_MOTION_DDOT = 0

CCSDS_OMM_VERS = 2.0
CREATION_DATE  = 
ORIGINATOR     = 

OBJECT_NAME    = UNKNOWN
OBJECT_ID      = 
CENTER_NAME    = EARTH
REF_FRAME      = TEME
TIME_SYSTEM    = UTC
MEAN_ELEMENT_THEORY = SGP/SGP4

EPOCH          = 2025-11-28T07:26:56.148576
MEAN_MOTION    = 14.32713140
ECCENTRICITY   = .0061228
INCLINATION    = 82.9103
RA_OF_ASC_NODE = 294.3524
ARG_OF_PERICENTER = 195.7560
MEAN_ANOMALY   = 164.1725

EPHEMERIS_TYPE = 0
CLASSIFICATION_TYPE = U
NORAD_CAT_ID   = 81844
ELEMENT_SET_NO = 999
REV_AT_EPOCH   = 62082
BSTAR          = .17723E-2
MEAN_MOTION_DOT = .494E-4
MEAN_MOTION_DDOT = 0

CCSDS_OMM_VERS = 2.0
CREATION_DATE  = 
ORIGINATOR     = 

OBJECT_NAME    = UNKNOWN
OBJECT_ID      = 
CENTER_NAME    = EARTH
REF_FRAME      = TEME
TIME_SYSTEM    = UTC
MEAN_ELEMENT_THEORY = SGP/SGP4

EPOCH          = 2025-11-30T11:21:38.680704
MEAN_MOTION    = 14.84949051
ECCENTRICITY   = .0087906
INCLINATION    = 97.6744
RA_OF_ASC_NODE = 161.9298
ARG_OF_PERICENTER = 346.3631
MEAN_ANOMALY   = 43.4653

EPHEMERIS_TYPE = 0
CLASSIFICATION_TYPE = U
NORAD_CAT_ID   = 81845
ELEMENT_SET_NO = 999
REV_AT_EPOCH   = 64770
BSTAR          = .32335E-3
MEAN_MOTION_DOT = .2894E-4
MEAN_MOTION_DDOT = 0

CCSDS_OMM_VERS = 2.0
CREATION_DATE  = 
ORIGINATOR     = 

OBJECT_NAME    = UNKNOWN
OBJECT_ID      = 
CENTER_NAME    = EARTH
REF_FRAME      = TEME
TIME_SYSTEM    = UTC
MEAN_ELEMENT_THEORY = SGP/SGP4

EPOCH          = 2025-11-27T15:09:23.238144
MEAN_MOTION    = 13.32326530
ECCENTRICITY   = .0762296
INCLINATION    = 65.6698
RA_OF_ASC_NODE = 102.1695
ARG_OF_PERICENTER = 19.7050
MEAN_ANOMALY   = 343.1811

EPHEMERIS_TYPE = 0
CLASSIFICATION_TYPE = U
NORAD_CAT_ID   = 81864
ELEMENT_SET_NO = 999
REV_AT_EPOCH   = 54882
BSTAR          = .32729E-3
MEAN_MOTION_DOT = .763E-5
MEAN_MOTION_DDOT = 0

