UNKNOWN                 
1 81745U          25334.49265864  .00002987  00000+0  95866-3 0  9998
2 81745  71.0020  54.3273 0007775 251.2509 108.7783 14.40233144627983
UNKNOWN                 
1 81749U          25319.57490487  .00000211  00000+0  84989-3 0  9997
2 81749  99.6904 353.3665 0369757 269.7481 249.3097 12.77597143558539
UNKNOWN                 
1 81775U          25332.00947675  .00007141  00000+0  22323-2 0  9997
2 81775  82.9191 236.4877 0018042 305.3206  54.6299 14.40556626623152
UNKNOWN                 
1 81792U          25331.70234375  .00001411  00000+0  51908-3 0  9994
2 81792  65.8243 129.6666 0896981 288.9934  61.6061 13.10816805 78061
UNKNOWN                 
1 81812U          25334.21005959 -.00000495  00000+0 -28396-2 0  9997
2 81812 103.8178 244.2568 0318442 271.0420  85.4171 12.37691082539012
UNKNOWN                 
1 81816U          25334.35831539  .00001997  00000+0  14838-2 0  9999
2 81816  66.2383 326.9961 0183883 253.2789 104.8034 13.89452409607623
UNKNOWN                 
1 81819U          25332.22648630  .00001094  00000+0  77162-2 0  9991
2 81819 102.1775  69.1905 0036637 148.7440 211.5815 12.47614835546206
UNKNOWN                 
1 81824U          25334.36138410  .00006321  00000+0  22169-2 0  9999
2 81824  65.8476  11.0991 0040929 331.5965  28.2898 14.35178981622811
UNKNOWN                 
1 81833U          25334.35719928  .00000155  00000+0  53425-3 0  9996
2 81833  90.2420   2.6404 0027996  58.7652 301.6204 12.93719461450912
UNKNOWN                 
1 81844U          25332.31037209  .00004940  00000+0  17723-2 0  9993
2 81844  82.9103 294.3524 0061228 195.7560 164.1725 14.32713140620821
UNKNOWN                 
1 81845U          25334.47336436  .00002894  00000+0  32335-3 0  9990
2 81845  97.6744 161.9298 0087906 346.3631  43.4653 14.84949051647701
UNKNOWN                 
1 81864U          25331.63151896  .00000763  00000+0  32729-3 0  9991
2 81864  65.6698 102.1695 0762296  19.7050 343.1811 13.32326530548823
